{
    "links": {
        "self": "http://www.neowsapp.com/rest/v1/neo/3304563?api_key=iIulBulltgU6a56xZRHN4H3l9WmuAYTsLGpBGhQ2"
    },
    "id": "3304563",
    "neo_reference_id": "3304563",
    "name": "(2005 WP3)",
    "designation": "2005 WP3",
    "nasa_jpl_url": "http://ssd.jpl.nasa.gov/sbdb.cgi?sstr=3304563",
    "absolute_magnitude_h": 24.9,
    "estimated_diameter": {
        "kilometers": {
            "estimated_diameter_min": 0.0278326768,
            "estimated_diameter_max": 0.0622357573
        },
        "meters": {
            "estimated_diameter_min": 27.8326768072,
            "estimated_diameter_max": 62.2357573367
        },
        "miles": {
            "estimated_diameter_min": 0.0172944182,
            "estimated_diameter_max": 0.0386714948
        },
        "feet": {
            "estimated_diameter_min": 91.3145593761,
            "estimated_diameter_max": 204.1855621004
        }
    },
    "is_potentially_hazardous_asteroid": false,
    "close_approach_data": [
        {
            "close_approach_date": "2005-11-21",
            "close_approach_date_full": "2005-Nov-21 03:45",
            "epoch_date_close_approach": 1132544700000,
            "relative_velocity": {
                "kilometers_per_second": "7.1953107852",
                "kilometers_per_hour": "25903.1188268257",
                "miles_per_hour": "16095.1906954795"
            },
            "miss_distance": {
                "astronomical": "0.035569733",
                "lunar": "13.836626137",
                "kilometers": "5321156.29326871",
                "miles": "3306413.200219798"
            },
            "orbiting_body": "Earth"
        }
    ],
    "orbital_data": {
        "orbit_id": "8",
        "orbit_determination_date": "2017-04-06 09:12:42",
        "first_observation_date": "2005-11-25",
        "last_observation_date": "2005-11-30",
        "data_arc_in_days": 5,
        "observations_used": 21,
        "orbit_uncertainty": "8",
        "minimum_orbit_intersection": ".0353418",
        "jupiter_tisserand_invariant": "3.370",
        "epoch_osculation": "2453700.5",
        "eccentricity": ".5542233470530636",
        "semi_major_axis": "2.293726383445049",
        "inclination": "4.779191119904193",
        "ascending_node_longitude": "62.8698536300577",
        "orbital_period": "1268.851630099581",
        "perihelion_distance": "1.022489669988215",
        "perihelion_argument": "353.4297728768721",
        "aphelion_distance": "3.564963096901883",
        "perihelion_time": "2453693.637948142822",
        "mean_anomaly": "1.946909008100659",
        "mean_motion": ".2837211155820848",
        "equinox": "J2000",
        "orbit_class": {
            "orbit_class_type": "AMO",
            "orbit_class_description": "Near-Earth asteroid orbits similar to that of 1221 Amor",
            "orbit_class_range": "1.017 AU < q (perihelion) < 1.3 AU"
        }
    },
    "is_sentry_object": false
}